0 ARIANE 44L DEB
1 28041U 91075L   13280.70367887 -.00000326  00000-0 -94745-2 0  4963
2 28041 007.3345 003.0914 6581006 104.0754 009.3111 02.84575062119345
0 ARIANE 44L DEB
1 28041U 91075L   13283.47725659  .00000028  00000-0  86743-3 0  4984
2 28041 007.3338 001.8067 6582665 106.6463 330.7300 02.84573907119414
0 ARIANE 44L DEB
1 28041U 91075L   13283.51022737 -.00000290  00000-0 -86295-2 0  4979
2 28041 007.3340 001.7946 6580504 106.6637 004.5263 02.84573266119428
0 ARIANE 44L DEB
1 28041U 91075L   13286.57135765 -.00000310  00000-0 -99159-2 0  4981
2 28041 007.3335 000.3757 6580000 109.4898 260.5235 02.84571854119512
0 ARIANE 44L DEB
1 28041U 91075L   13289.47783473 -.00000374  00000-0 -11105-1 0  4993
2 28041 007.3328 359.0257 6579726 112.1748 358.0742 02.84571033119594
0 ARIANE 44L DEB
1 28041U 91075L   13292.51867648 -.00000438  00000-0 -11750-1 0  5009
2 28041 007.3322 357.6133 6579455 114.9845 233.2622 02.84569534119686
